IRIDIUM 135             
1 43070U 17083A   22230.15322902  .00000211  00000+0  68327-4 0  9999
2 43070  86.4022 186.6924 0002475  90.2179 269.9300 14.34220284243626
IRIDIUM 138             
1 43071U 17083B   22230.31813919  .00000218  00000+0  70777-4 0  9990
2 43071  86.4012 186.4249 0002111  81.7446 278.3989 14.34219515243636
IRIDIUM 116             
1 43072U 17083C   22230.63526948  .00000195  00000+0  62446-4 0  9997
2 43072  86.4022 186.4938 0002503  82.1752 277.9728 14.34217264243717
IRIDIUM 130             
1 43073U 17083D   22231.23147656  .00000206  00000+0  66646-4 0  9999
2 43073  86.4032 186.3835 0002161  79.4115 280.7324 14.34216427243743
IRIDIUM 151             
1 43074U 17083E   22230.71772169  .00000195  00000+0  62645-4 0  9997
2 43074  86.4024 186.4851 0002481  80.7276 279.4201 14.34219510243691
IRIDIUM 134             
1 43075U 17083F   22231.17438470  .00000201  00000+0  64837-4 0  9996
2 43075  86.4026 186.2832 0002126  89.5297 270.6142 14.34220647243721
IRIDIUM 137             
1 43076U 17083G   22230.62891594  .00000204  00000+0  65661-4 0  9995
2 43076  86.4027 186.5770 0002540  81.8579 278.2905 14.34213888243714
IRIDIUM 141             
1 43077U 17083H   22230.41327236  .00000208  00000+0  67306-4 0  9992
2 43077  86.4024 186.5750 0002178  80.7485 279.3957 14.34214880243689
IRIDIUM 153             
1 43078U 17083J   22230.29569771  .00000219  00000+0  70973-4 0  9997
2 43078  86.4026 155.1134 0002008  72.6357 287.5058 14.34218096244777
IRIDIUM 131             
1 43079U 17083K   22230.40056666  .00000375  00000+0  12673-3 0  9990
2 43079  86.4027 186.6728 0001995  80.1456 279.9965 14.34213770243613
IRIDIUM 144             
1 43249U 18030A   22230.23225382  .00000216  00000+0  70061-4 0  9996
2 43249  86.4024 155.1074 0002114  89.9189 270.2249 14.34221830229628
IRIDIUM 149             
1 43250U 18030B   22230.30835929  .00000217  00000+0  70363-4 0  9996
2 43250  86.4022 155.0577 0002242  90.1854 269.9599 14.34222237229658
IRIDIUM 157             
1 43251U 18030C   22230.32740501  .00000210  00000+0  67841-4 0  9990
2 43251  86.4024 155.0722 0002356  76.6618 283.4841 14.34222016229630
IRIDIUM 140             
1 43252U 18030D   22230.34643350  .00000216  00000+0  69944-4 0  9999
2 43252  86.4024 155.0792 0002088  94.5761 265.5673 14.34221091229690
IRIDIUM 145             
1 43253U 18030E   22230.89188342  .00000196  00000+0  62832-4 0  9991
2 43253  86.4023 154.8277 0002756  96.8324 263.3186 14.34221984229705
IRIDIUM 146             
1 43254U 18030F   22230.73332665  .00000194  00000+0  62202-4 0  9993
2 43254  86.4024 154.9099 0002479  88.6476 271.5004 14.34216024229696
IRIDIUM 148             
1 43255U 18030G   22230.35276928  .00000224  00000+0  73071-4 0  9991
2 43255  86.4025 155.0915 0002425  80.7303 279.4166 14.34222260229673
IRIDIUM 142             
1 43256U 18030H   22230.66990366  .00000194  00000+0  62126-4 0  9990
2 43256  86.4022 154.8994 0002306  84.4104 275.7355 14.34221386229681
IRIDIUM 150             
1 43257U 18030J   22230.28933788  .00000195  00000+0  62398-4 0  9996
2 43257  86.4006 155.1314 0001788  93.5632 266.5768 14.34220021229652
IRIDIUM 143             
1 43258U 18030K   22230.34008798  .00000218  00000+0  70625-4 0  9996
2 43258  86.4028 155.1437 0002396  90.9153 269.2317 14.34216454229596
IRIDIUM 161             
1 43478U 18047C   22230.28067237  .00000249  00000+0  68141-4 0  9998
2 43478  86.4508 313.0889 0002012 101.0570 259.0857 14.43276975223360
IRIDIUM 152             
1 43479U 18047D   22230.31280222  .00000193  00000+0  61935-4 0  9996
2 43479  86.3983 312.9397 0002545  94.2013 265.9474 14.34220755221987
IRIDIUM 147             
1 43480U 18047E   22230.31915391  .00000234  00000+0  76652-4 0  9998
2 43480  86.3984 312.9180 0002256  88.6328 271.5126 14.34217482221985
IRIDIUM 110             
1 43481U 18047F   22230.74410069  .00000181  00000+0  57635-4 0  9999
2 43481  86.3985 312.7954 0002097 101.3995 258.7436 14.34219751222039
IRIDIUM 162             
1 43482U 18047G   22230.27434329  .00000245  00000+0  66925-4 0  9996
2 43482  86.4507 313.0010 0002324  96.2322 263.9143 14.43276470223357
IRIDIUM 160             
1 43569U 18061A   22230.41086752  .00000155  00000+0  48267-4 0  9996
2 43569  86.3940 281.2935 0002464  88.0590 272.0888 14.34220524212888
IRIDIUM 166             
1 43570U 18061B   22230.43623270  .00000155  00000+0  48188-4 0  9994
2 43570  86.3939 281.2527 0002303  98.1948 261.9509 14.34220969212910
IRIDIUM 158             
1 43571U 18061C   22230.40452303  .00000161  00000+0  50393-4 0  9997
2 43571  86.3939 281.2743 0002566  93.7087 266.4402 14.34218814212881
IRIDIUM 165             
1 43572U 18061D   22230.22059428  .00000170  00000+0  53548-4 0  9994
2 43572  86.3940 281.3715 0002525  95.8264 264.3220 14.34218714212872
IRIDIUM 155             
1 43573U 18061E   22230.39183596  .00000172  00000+0  54500-4 0  9998
2 43573  86.3937 281.2368 0001984  95.4765 264.6657 14.34218371212867
IRIDIUM 154             
1 43574U 18061F   22230.79141859  .00000148  00000+0  45796-4 0  9999
2 43574  86.3940 281.1361 0002449  86.9447 273.2029 14.34220690212971
IRIDIUM 163             
1 43575U 18061G   22230.42355092  .00000151  00000+0  46684-4 0  9997
2 43575  86.3938 281.2482 0002600  97.2876 262.8615 14.34220487212894
IRIDIUM 156             
1 43576U 18061H   22230.39819151  .00000165  00000+0  51886-4 0  9990
2 43576  86.3939 281.2643 0002299 100.8216 259.3239 14.34219842212872
IRIDIUM 164             
1 43577U 18061J   22230.37914716  .00000168  00000+0  52788-4 0  9997
2 43577  86.3940 281.2912 0002530  89.8754 270.2732 14.34221027212929
IRIDIUM 159             
1 43578U 18061K   22230.41721575  .00000155  00000+0  48322-4 0  9997
2 43578  86.3938 281.2415 0002455  89.0258 271.1219 14.34218658212894
IRIDIUM 180             
1 43922U 19002A   22230.69577371  .00000128  00000+0  38702-4 0  9990
2 43922  86.3975 217.9930 0002832  82.5915 277.5602 14.34218883188543
IRIDIUM 176             
1 43923U 19002B   22230.72338849  .00000273  00000+0  39338-4 0  9997
2 43923  86.6110 218.0174 0002536  88.6765 271.4743 14.72251830193491
IRIDIUM 168             
1 43924U 19002C   22230.82897037  .00000127  00000+0  38191-4 0  9992
2 43924  86.3977 217.9750 0002432  82.5820 277.5652 14.34218997188549
IRIDIUM 173             
1 43925U 19002D   22230.81629552  .00000086  00000+0  23732-4 0  9996
2 43925  86.3974 217.9264 0002499  84.9472 275.2009 14.34216486188529
IRIDIUM 169             
1 43926U 19002E   22230.48572301  .00000126  00000+0  34529-4 0  9990
2 43926  86.4190 249.6527 0002120 267.5594  92.5362 14.38603489189137
IRIDIUM 172             
1 43927U 19002F   22230.67041159  .00000121  00000+0  36098-4 0  9992
2 43927  86.3975 217.9911 0002541  84.0343 276.1143 14.34219291188512
IRIDIUM 175             
1 43928U 19002G   22230.71721967  .00000284  00000+0  41069-4 0  9994
2 43928  86.6113 217.8523 0002534  85.4728 274.6779 14.72258339193480
IRIDIUM 171             
1 43929U 19002H   22230.72115183  .00000130  00000+0  39214-4 0  9992
2 43929  86.3983 218.1207 0002407  82.3907 277.7562 14.34217869188513
IRIDIUM 170             
1 43930U 19002J   22230.52567227  .00000274  00000+0  39530-4 0  9992
2 43930  86.6110 218.1053 0002343  86.4908 273.6577 14.72253142193472
IRIDIUM 167             
1 43931U 19002K   22230.71480206  .00000128  00000+0  38701-4 0  9992
2 43931  86.3975 217.9825 0002638  82.5244 277.6251 14.34219085188518
IRIDIUM 7 [-]           
1 24793U 97020B   22230.44318910  .00000223  00000+0  72024-4 0  9997
2 24793  86.3925 249.5947 0002101  89.1947 270.9490 14.34526437323639
IRIDIUM 5 [-]           
1 24795U 97020D   22230.41552750  .00001197  00000+0  12687-3 0  9997
2 24795  86.4006 194.0772 0134665 204.4617 155.0179 14.81557351331872
IRIDIUM 4 [-]           
1 24796U 97020E   22230.45479007  .00000208  00000+0  65448-4 0  9991
2 24796  86.3923 247.1538 0002318  85.0971 275.0490 14.35430710324111
IRIDIUM 914 [-]         
1 24836U 97030A   22230.43548113  .00000265  00000+0  79170-4 0  9990
2 24836  86.3895 258.7465 0003496  61.6562 298.4988 14.39152683320475
IRIDIUM 16 [-]          
1 24841U 97030F   22230.20244282  .00000245  00000+0  75937-4 0  9996
2 24841  86.4005 279.0919 0002029 160.2217 199.9060 14.37104356318430
IRIDIUM 911 [-]         
1 24842U 97030G   22230.38592790  .00000293  00000+0  77452-4 0  9993
2 24842  86.4431 278.6507 0012397 303.8878  56.1144 14.45440896325637
IRIDIUM 17 [-]          
1 24870U 97034B   22230.30519378  .00000248  00000+0  78274-4 0  9994
2 24870  86.3972 308.8243 0003471 121.3224 238.8313 14.36163137315121
IRIDIUM 920 [-]         
1 24871U 97034C   22230.58012383  .00000201  00000+0  57724-4 0  9995
2 24871  86.3956 290.3633 0009647 241.9087 118.1137 14.39875935317775
IRIDIUM 921 [-]         
1 24873U 97034E   22230.48470807  .00004390  00000+0  22619-3 0  9992
2 24873  86.3875 251.2269 0004935 228.6110 131.4707 15.16107246373291
IRIDIUM 26 [-]          
1 24903U 97043A   22230.42823578  .00000295  00000+0  95444-4 0  9994
2 24903  86.4017 184.1169 0002088  85.0433 275.1002 14.35608291308363
IRIDIUM 22 [-]          
1 24907U 97043E   22230.39586723  .00000276  00000+0  91001-4 0  9996
2 24907  86.4018 186.8446 0002313  84.5615 275.5845 14.34537544308508
DUMMY MASS 1 [-]        
1 24925U 97048A   22230.48119856  .00000222  00000+0  22557-4 0  9991
2 24925  86.3312 252.6133 0006309 186.1236 173.9912 14.85407559351610
DUMMY MASS 2 [-]        
1 24926U 97048B   22230.47831272  .00000220  00000+0  22451-4 0  9995
2 24926  86.3310 254.0431 0006650 199.5950 160.5020 14.85173408351419
IRIDIUM 29 [-]          
1 24944U 97051A   22230.68038526  .00000282  00000+0  92069-4 0  9993
2 24944  86.3967 216.8261 0002444  82.3112 277.8362 14.34973680304996
